{
  "type": "FeatureCollection",
  "features": [
    {
      "type": "Feature",
      "properties": {
        "norad_id": 38717,
        "name": "FENGYUN 1C DEB",
        "group": "fengyun-1c-debris",
        "lat": -27.418772998646247,
        "lon": -171.03089557770733,
        "alt_km": 847.2762557280676,
        "timestamp": "2025-12-24T03:53:29.937465+00:00",
        "meta_object_name": "FENGYUN 1C DEB",
        "meta_object_id": "1999-025ETJ",
        "meta_epoch": "2025-12-20T20:16:03.375264",
        "meta_mean_motion": 14.19985703,
        "meta_eccentricity": 0.00566207,
        "meta_inclination": 99.1583,
        "meta_ra_of_asc_node": 10.338,
        "meta_arg_of_pericenter": 330.8628,
        "meta_mean_anomaly": 207.0088,
        "meta_ephemeris_type": 0,
        "meta_classification_type": "U",
        "meta_norad_cat_id": 38717,
        "meta_element_set_no": 999,
        "meta_rev_at_epoch": 58541,
        "meta_bstar": 0.001109032,
        "meta_mean_motion_dot": 2.349e-05,
        "meta_mean_motion_ddot": 0,
        "tle_line1": "1 38717U 99025ETJ 25354.84448351  .00002349  00000+0  11090-2 0  9997",
        "tle_line2": "2 38717  99.1583  10.3380 0056620 330.8628 207.0088 14.19985703585412"
      },
      "geometry": {
        "type": "Point",
        "coordinates": [
          -171.03089557770733,
          -27.418772998646247
        ]
      }
    },
    {
      "type": "Feature",
      "properties": {
        "norad_id": 38722,
        "name": "FENGYUN 1C DEB",
        "group": "fengyun-1c-debris",
        "lat": 22.970414773190324,
        "lon": 93.90094378398999,
        "alt_km": 614.0172649728665,
        "timestamp": "2025-12-24T03:53:29.937476+00:00",
        "meta_object_name": "FENGYUN 1C DEB",
        "meta_object_id": "1999-025ETP",
        "meta_epoch": "2025-12-23T03:05:34.681632",
        "meta_mean_motion": 14.58641148,
        "meta_eccentricity": 0.0145982,
        "meta_inclination": 99.353,
        "meta_ra_of_asc_node": 96.7446,
        "meta_arg_of_pericenter": 63.5175,
        "meta_mean_anomaly": 298.091,
        "meta_ephemeris_type": 0,
        "meta_classification_type": "U",
        "meta_norad_cat_id": 38722,
        "meta_element_set_no": 999,
        "meta_rev_at_epoch": 70615,
        "meta_bstar": 0.0021733607,
        "meta_mean_motion_dot": 0.00011693,
        "meta_mean_motion_ddot": 0,
        "tle_line1": "1 38722U 99025ETP 25357.12887363  .00011693  00000+0  21734-2 0  9995",
        "tle_line2": "2 38722  99.3530  96.7446 0145982  63.5175 298.0910 14.58641148706155"
      },
      "geometry": {
        "type": "Point",
        "coordinates": [
          93.90094378398999,
          22.970414773190324
        ]
      }
    },
    {
      "type": "Feature",
      "properties": {
        "norad_id": 38725,
        "name": "FENGYUN 1C DEB",
        "group": "fengyun-1c-debris",
        "lat": -29.805187962346988,
        "lon": 128.98267128738127,
        "alt_km": 761.6107396199441,
        "timestamp": "2025-12-24T03:53:29.937486+00:00",
        "meta_object_name": "FENGYUN 1C DEB",
        "meta_object_id": "1999-025ETS",
        "meta_epoch": "2025-12-17T07:16:31.480896",
        "meta_mean_motion": 14.42909835,
        "meta_eccentricity": 0.00350733,
        "meta_inclination": 98.8709,
        "meta_ra_of_asc_node": 116.7145,
        "meta_arg_of_pericenter": 243.5094,
        "meta_mean_anomaly": 116.2496,
        "meta_ephemeris_type": 0,
        "meta_classification_type": "U",
        "meta_norad_cat_id": 38725,
        "meta_element_set_no": 999,
        "meta_rev_at_epoch": 73418,
        "meta_bstar": 0.0021269674,
        "meta_mean_motion_dot": 7.121e-05,
        "meta_mean_motion_ddot": 0,
        "tle_line1": "1 38725U 99025ETS 25351.30314214  .00007121  00000+0  21270-2 0  9998",
        "tle_line2": "2 38725  98.8709 116.7145 0035073 243.5094 116.2496 14.42909835734185"
      },
      "geometry": {
        "type": "Point",
        "coordinates": [
          128.98267128738127,
          -29.805187962346988
        ]
      }
    },
    {
      "type": "Feature",
      "properties": {
        "norad_id": 38726,
        "name": "FENGYUN 1C DEB",
        "group": "fengyun-1c-debris",
        "lat": -69.53651935538932,
        "lon": 49.82892443401738,
        "alt_km": 574.3208983596805,
        "timestamp": "2025-12-24T03:53:29.937496+00:00",
        "meta_object_name": "FENGYUN 1C DEB",
        "meta_object_id": "1999-025ETT",
        "meta_epoch": "2025-12-18T07:44:42.644256",
        "meta_mean_motion": 15.04018095,
        "meta_eccentricity": 0.00236822,
        "meta_inclination": 99.1359,
        "meta_ra_of_asc_node": 17.3874,
        "meta_arg_of_pericenter": 108.0917,
        "meta_mean_anomaly": 252.2886,
        "meta_ephemeris_type": 0,
        "meta_classification_type": "U",
        "meta_norad_cat_id": 38726,
        "meta_element_set_no": 999,
        "meta_rev_at_epoch": 69939,
        "meta_bstar": 0.0056393313,
        "meta_mean_motion_dot": 0.00079186,
        "meta_mean_motion_ddot": 0,
        "tle_line1": "1 38726U 99025ETT 25352.32271579  .00079186  00000+0  56393-2 0  9992",
        "tle_line2": "2 38726  99.1359  17.3874 0023682 108.0917 252.2886 15.04018095699393"
      },
      "geometry": {
        "type": "Point",
        "coordinates": [
          49.82892443401738,
          -69.53651935538932
        ]
      }
    },
    {
      "type": "Feature",
      "properties": {
        "norad_id": 38728,
        "name": "FENGYUN 1C DEB",
        "group": "fengyun-1c-debris",
        "lat": -79.99342831426482,
        "lon": 54.65494154890443,
        "alt_km": 680.3367784873517,
        "timestamp": "2025-12-24T03:53:29.937506+00:00",
        "meta_object_name": "FENGYUN 1C DEB",
        "meta_object_id": "1999-025ETV",
        "meta_epoch": "2025-12-22T18:33:42.278400",
        "meta_mean_motion": 14.70736364,
        "meta_eccentricity": 0.00748504,
        "meta_inclination": 99.2598,
        "meta_ra_of_asc_node": 345.4676,
        "meta_arg_of_pericenter": 24.3444,
        "meta_mean_anomaly": 101.5642,
        "meta_ephemeris_type": 0,
        "meta_classification_type": "U",
        "meta_norad_cat_id": 38728,
        "meta_element_set_no": 999,
        "meta_rev_at_epoch": 65758,
        "meta_bstar": 0.0014415437,
        "meta_mean_motion_dot": 9.126e-05,
        "meta_mean_motion_ddot": 0,
        "tle_line1": "1 38728U 99025ETV 25356.77340600  .00009126  00000+0  14415-2 0  9995",
        "tle_line2": "2 38728  99.2598 345.4676 0074850  24.3444 101.5642 14.70736364657583"
      },
      "geometry": {
        "type": "Point",
        "coordinates": [
          54.65494154890443,
          -79.99342831426482
        ]
      }
    },
    {
      "type": "Feature",
      "properties": {
        "norad_id": 38789,
        "name": "FENGYUN 1C DEB",
        "group": "fengyun-1c-debris",
        "lat": -79.51582214208561,
        "lon": -57.83997095121933,
        "alt_km": 706.68026020034,
        "timestamp": "2025-12-24T03:53:29.937516+00:00",
        "meta_object_name": "FENGYUN 1C DEB",
        "meta_object_id": "1999-025EUD",
        "meta_epoch": "2025-12-16T11:04:27.892416",
        "meta_mean_motion": 14.45831603,
        "meta_eccentricity": 0.02075268,
        "meta_inclination": 98.8566,
        "meta_ra_of_asc_node": 236.7044,
        "meta_arg_of_pericenter": 14.1855,
        "meta_mean_anomaly": 164.1034,
        "meta_ephemeris_type": 0,
        "meta_classification_type": "U",
        "meta_norad_cat_id": 38789,
        "meta_element_set_no": 999,
        "meta_rev_at_epoch": 61899,
        "meta_bstar": 0.00050950207,
        "meta_mean_motion_dot": 2.303e-05,
        "meta_mean_motion_ddot": 0,
        "tle_line1": "1 38789U 99025EUD 25350.46143394  .00002303  00000+0  50950-3 0  9998",
        "tle_line2": "2 38789  98.8566 236.7044 0207526  14.1855 164.1034 14.45831603618998"
      },
      "geometry": {
        "type": "Point",
        "coordinates": [
          -57.83997095121933,
          -79.51582214208561
        ]
      }
    },
    {
      "type": "Feature",
      "properties": {
        "norad_id": 38795,
        "name": "FENGYUN 1C DEB",
        "group": "fengyun-1c-debris",
        "lat": -28.03629263538288,
        "lon": 24.052710522635785,
        "alt_km": 1227.8708694110064,
        "timestamp": "2025-12-24T03:53:29.937528+00:00",
        "meta_object_name": "FENGYUN 1C DEB",
        "meta_object_id": "1999-025EUK",
        "meta_epoch": "2025-12-19T08:28:58.853280",
        "meta_mean_motion": 13.29929799,
        "meta_eccentricity": 0.050261,
        "meta_inclination": 98.6991,
        "meta_ra_of_asc_node": 15.2992,
        "meta_arg_of_pericenter": 239.3725,
        "meta_mean_anomaly": 115.6931,
        "meta_ephemeris_type": 0,
        "meta_classification_type": "U",
        "meta_norad_cat_id": 38795,
        "meta_element_set_no": 999,
        "meta_rev_at_epoch": 78600,
        "meta_bstar": 0.0020267,
        "meta_mean_motion_dot": 1.866e-05,
        "meta_mean_motion_ddot": 0,
        "tle_line1": "1 38795U 99025EUK 25353.35345895  .00001866  00000+0  20267-2 0  9996",
        "tle_line2": "2 38795  98.6991  15.2992 0502610 239.3725 115.6931 13.29929799786006"
      },
      "geometry": {
        "type": "Point",
        "coordinates": [
          24.052710522635785,
          -28.03629263538288
        ]
      }
    }
  ]
}